start=new Date('2022-08-07T00:00:00.000Z').valueOf();
sats=[{"EPOCH":"2022-08-06T13:00:40.000896","ARG_OF_PERICENTER":"51.4809","EPHEMERIS_TYPE":"0","SITE":"AFETR","NORAD_CAT_ID":"50843","MEAN_ELEMENT_THEORY":"SGP4","REF_FRAME":"TEME","MEAN_MOTION_DOT":"0.00000891","BSTAR":"0.00007404600000","CENTER_NAME":"EARTH","MEAN_MOTION_DDOT":"0.0000000000000","RCS_SIZE":"LARGE","FILE":"3530579","LAUNCH_DATE":"2022-01-06","PERIOD":"95.437","ELEMENT_SET_NO":"999","PERIAPSIS":"538.473","ECCENTRICITY":"0.00018060","REV_AT_EPOCH":"3232","OBJECT_ID":"2022-001AS","MEAN_ANOMALY":"308.6344","SEMIMAJOR_AXIS":"6917.857","CLASSIFICATION_TYPE":"U","TLE_LINE1":"1 50843U 22001AS  22218.54212964  .00000891  00000-0  74046-4 0  9996","DECAY_DATE":null,"INCLINATION":"53.2185","APOAPSIS":"540.971","GP_ID":"209696723","COUNTRY_CODE":"US","MEAN_MOTION":"15.08847687","TLE_LINE2":"2 50843  53.2185 305.1012 0001806  51.4809 308.6344 15.08847687 32322","OBJECT_TYPE":"PAYLOAD","RA_OF_ASC_NODE":"305.1012","TIME_SYSTEM":"UTC","OBJECT_NAME":"STARLINK-3325"},{"TLE_LINE2":"2 50844  53.2182 304.3571 0001483  54.3614 305.7516 15.08836881 32354","MEAN_MOTION":"15.08836881","COUNTRY_CODE":"US","OBJECT_NAME":"STARLINK-3326","TIME_SYSTEM":"UTC","OBJECT_TYPE":"PAYLOAD","RA_OF_ASC_NODE":"304.3571","SEMIMAJOR_AXIS":"6917.890","CLASSIFICATION_TYPE":"U","MEAN_ANOMALY":"305.7516","GP_ID":"209726573","INCLINATION":"53.2182","APOAPSIS":"540.781","DECAY_DATE":null,"TLE_LINE1":"1 50844U 22001AT  22218.70774087  .00000304  00000-0  37200-4 0  9994","MEAN_MOTION_DDOT":"0.0000000000000","RCS_SIZE":"LARGE","MEAN_MOTION_DOT":"0.00000304","BSTAR":"0.00003720000000","CENTER_NAME":"EARTH","NORAD_CAT_ID":"50844","MEAN_ELEMENT_THEORY":"SGP4","REF_FRAME":"TEME","REV_AT_EPOCH":"3235","OBJECT_ID":"2022-001AT","LAUNCH_DATE":"2022-01-06","PERIOD":"95.438","ELEMENT_SET_NO":"999","ECCENTRICITY":"0.00014830","PERIAPSIS":"538.729","FILE":"3530813","EPOCH":"2022-08-06T16:59:08.811168","ARG_OF_PERICENTER":"54.3614","SITE":"AFETR","EPHEMERIS_TYPE":"0"},{"MEAN_MOTION":"15.08843244","COUNTRY_CODE":"US","TLE_LINE2":"2 50845  53.2189 304.1512 0001546  50.2440 309.8688 15.08843244 32364","OBJECT_NAME":"STARLINK-3230","OBJECT_TYPE":"PAYLOAD","TIME_SYSTEM":"UTC","RA_OF_ASC_NODE":"304.1512","MEAN_ANOMALY":"309.8688","CLASSIFICATION_TYPE":"U","SEMIMAJOR_AXIS":"6917.870","TLE_LINE1":"1 50845U 22001AU  22218.75189384  .00001074  00000-0  85567-4 0  9994","DECAY_DATE":null,"GP_ID":"209727825","APOAPSIS":"540.805","INCLINATION":"53.2189","MEAN_ELEMENT_THEORY":"SGP4","REF_FRAME":"TEME","NORAD_CAT_ID":"50845","RCS_SIZE":"LARGE","MEAN_MOTION_DDOT":"0.0000000000000","CENTER_NAME":"EARTH","BSTAR":"0.00008556700000","MEAN_MOTION_DOT":"0.00001074","ECCENTRICITY":"0.00015460","PERIAPSIS":"538.666","LAUNCH_DATE":"2022-01-06","ELEMENT_SET_NO":"999","PERIOD":"95.437","FILE":"3530813","OBJECT_ID":"2022-001AU","REV_AT_EPOCH":"3236","ARG_OF_PERICENTER":"50.2440","EPOCH":"2022-08-06T18:02:43.627776","SITE":"AFETR","EPHEMERIS_TYPE":"0"},{"REV_AT_EPOCH":"3234","OBJECT_ID":"2022-001AV","FILE":"3530813","PERIOD":"95.438","LAUNCH_DATE":"2022-01-06","ELEMENT_SET_NO":"999","ECCENTRICITY":"0.00013910","PERIAPSIS":"538.789","MEAN_MOTION_DOT":"0.00000785","BSTAR":"0.00006741100000","CENTER_NAME":"EARTH","MEAN_MOTION_DDOT":"0.0000000000000","RCS_SIZE":"LARGE","NORAD_CAT_ID":"50846","REF_FRAME":"TEME","MEAN_ELEMENT_THEORY":"SGP4","EPHEMERIS_TYPE":"0","SITE":"AFETR","EPOCH":"2022-08-06T15:18:27.224640","ARG_OF_PERICENTER":"66.7141","RA_OF_ASC_NODE":"304.6702","OBJECT_TYPE":"PAYLOAD","TIME_SYSTEM":"UTC","OBJECT_NAME":"STARLINK-3308","TLE_LINE2":"2 50846  53.2184 304.6702 0001391  66.7141 293.3997 15.08838182 32347","COUNTRY_CODE":"US","MEAN_MOTION":"15.08838182","INCLINATION":"53.2184","APOAPSIS":"540.713","GP_ID":"209728076","DECAY_DATE":null,"TLE_LINE1":"1 50846U 22001AV  22218.63781510  .00000785  00000-0  67411-4 0  9997","SEMIMAJOR_AXIS":"6917.886","CLASSIFICATION_TYPE":"U","MEAN_ANOMALY":"293.3997"},{"OBJECT_NAME":"STARLINK-3319","RA_OF_ASC_NODE":"305.1335","OBJECT_TYPE":"PAYLOAD","TIME_SYSTEM":"UTC","MEAN_MOTION":"15.08846980","COUNTRY_CODE":"US","TLE_LINE2":"2 50847  53.2176 305.1335 0001702  78.5315 281.5868 15.08846980 33529","DECAY_DATE":null,"TLE_LINE1":"1 50847U 22001AW  22218.53109485 -.00005804  00000-0 -34676-3 0  9997","GP_ID":"209703658","INCLINATION":"53.2176","APOAPSIS":"540.901","MEAN_ANOMALY":"281.5868","SEMIMAJOR_AXIS":"6917.859","CLASSIFICATION_TYPE":"U","LAUNCH_DATE":"2022-01-06","ELEMENT_SET_NO":"999","PERIOD":"95.437","ECCENTRICITY":"0.00017020","PERIAPSIS":"538.547","FILE":"3530791","REV_AT_EPOCH":"3352","OBJECT_ID":"2022-001AW","NORAD_CAT_ID":"50847","REF_FRAME":"TEME","MEAN_ELEMENT_THEORY":"SGP4","RCS_SIZE":"LARGE","MEAN_MOTION_DDOT":"0.0000000000000","MEAN_MOTION_DOT":"-0.00005804","BSTAR":"-0.00034676000000","CENTER_NAME":"EARTH","SITE":"AFETR","EPHEMERIS_TYPE":"0","EPOCH":"2022-08-06T12:44:46.595040","ARG_OF_PERICENTER":"78.5315"},{"MEAN_MOTION":"15.08830997","COUNTRY_CODE":"US","TLE_LINE2":"2 50848  53.2197 305.2783 0001735  50.7366 309.3780 15.08830997 32325","OBJECT_NAME":"STARLINK-3315","OBJECT_TYPE":"PAYLOAD","TIME_SYSTEM":"UTC","RA_OF_ASC_NODE":"305.2783","MEAN_ANOMALY":"309.3780","SEMIMAJOR_AXIS":"6917.908","CLASSIFICATION_TYPE":"U","TLE_LINE1":"1 50848U 22001AX  22218.50166684  .00000055  00000-0  21569-4 0  9998","DECAY_DATE":null,"GP_ID":"209696974","INCLINATION":"53.2197","APOAPSIS":"540.973","NORAD_CAT_ID":"50848","MEAN_ELEMENT_THEORY":"SGP4","REF_FRAME":"TEME","MEAN_MOTION_DDOT":"0.0000000000000","RCS_SIZE":"LARGE","MEAN_MOTION_DOT":"0.00000055","CENTER_NAME":"EARTH","BSTAR":"0.00002156900000","LAUNCH_DATE":"2022-01-06","ELEMENT_SET_NO":"999","PERIOD":"95.438","PERIAPSIS":"538.573","ECCENTRICITY":"0.00017350","FILE":"3530579","REV_AT_EPOCH":"3232","OBJECT_ID":"2022-001AX","EPOCH":"2022-08-06T12:02:24.014976","ARG_OF_PERICENTER":"50.7366","SITE":"AFETR","EPHEMERIS_TYPE":"0"},{"SITE":"AFETR","EPHEMERIS_TYPE":"0","EPOCH":"2022-08-06T10:42:53.126208","ARG_OF_PERICENTER":"53.2299","REV_AT_EPOCH":"3231","OBJECT_ID":"2022-001AY","LAUNCH_DATE":"2022-01-06","ELEMENT_SET_NO":"999","PERIOD":"95.437","ECCENTRICITY":"0.00013640","PERIAPSIS":"538.767","FILE":"3530579","MEAN_MOTION_DDOT":"0.0000000000000","RCS_SIZE":"LARGE","MEAN_MOTION_DOT":"0.00001566","CENTER_NAME":"EARTH","BSTAR":"0.00011640000000","NORAD_CAT_ID":"50849","REF_FRAME":"TEME","MEAN_ELEMENT_THEORY":"SGP4","GP_ID":"209695722","INCLINATION":"53.2180","APOAPSIS":"540.655","DECAY_DATE":null,"TLE_LINE1":"1 50849U 22001AY  22218.44644822  .00001566  00000-0  11640-3 0  9993","SEMIMAJOR_AXIS":"6917.846","CLASSIFICATION_TYPE":"U","MEAN_ANOMALY":"306.8818","OBJECT_NAME":"STARLINK-3311","RA_OF_ASC_NODE":"305.5293","OBJECT_TYPE":"PAYLOAD","TIME_SYSTEM":"UTC","TLE_LINE2":"2 50849  53.2180 305.5293 0001364  53.2299 306.8818 15.08851264 32311","MEAN_MOTION":"15.08851264","COUNTRY_CODE":"US"},{"OBJECT_NAME":"STARLINK-3312","OBJECT_TYPE":"PAYLOAD","RA_OF_ASC_NODE":"263.3978","TIME_SYSTEM":"UTC","MEAN_MOTION":"15.08831735","COUNTRY_CODE":"US","TLE_LINE2":"2 50850  53.2143 263.3978 0001684  44.5659 331.1026 15.08831735  1309","TLE_LINE1":"1 50850U 22001AZ  22218.91667824  .00019164  00000-0  12192-2 0  9999","DECAY_DATE":null,"GP_ID":"209727576","APOAPSIS":"540.936","INCLINATION":"53.2143","MEAN_ANOMALY":"331.1026","CLASSIFICATION_TYPE":"U","SEMIMAJOR_AXIS":"6917.906","PERIAPSIS":"538.606","ECCENTRICITY":"0.00016840","ELEMENT_SET_NO":"999","LAUNCH_DATE":"2022-01-06","PERIOD":"95.438","FILE":"3530813","OBJECT_ID":"2022-001AZ","REV_AT_EPOCH":"130","REF_FRAME":"TEME","MEAN_ELEMENT_THEORY":"SGP4","NORAD_CAT_ID":"50850","RCS_SIZE":"LARGE","MEAN_MOTION_DDOT":"0.0000000000000","BSTAR":"0.00121920000000","CENTER_NAME":"EARTH","MEAN_MOTION_DOT":"0.00019164","SITE":"AFETR","EPHEMERIS_TYPE":"0","ARG_OF_PERICENTER":"44.5659","EPOCH":"2022-08-06T22:00:00.999936"},{"INCLINATION":"53.2182","APOAPSIS":"540.742","GP_ID":"209726324","TLE_LINE1":"1 50851U 22001BA  22218.63045963  .00001118  00000-0  88296-4 0  9993","DECAY_DATE":null,"SEMIMAJOR_AXIS":"6917.856","CLASSIFICATION_TYPE":"U","MEAN_ANOMALY":"306.2198","RA_OF_ASC_NODE":"304.7025","OBJECT_TYPE":"PAYLOAD","TIME_SYSTEM":"UTC","OBJECT_NAME":"STARLINK-3314","TLE_LINE2":"2 50851  53.2182 304.7025 0001477  53.8931 306.2198 15.08848109 32346","COUNTRY_CODE":"US","MEAN_MOTION":"15.08848109","EPHEMERIS_TYPE":"0","SITE":"AFETR","EPOCH":"2022-08-06T15:07:51.712032","ARG_OF_PERICENTER":"53.8931","REV_AT_EPOCH":"3234","OBJECT_ID":"2022-001BA","FILE":"3530813","LAUNCH_DATE":"2022-01-06","ELEMENT_SET_NO":"999","PERIOD":"95.437","PERIAPSIS":"538.699","ECCENTRICITY":"0.00014770","MEAN_MOTION_DOT":"0.00001118","BSTAR":"0.00008829600000","CENTER_NAME":"EARTH","MEAN_MOTION_DDOT":"0.0000000000000","RCS_SIZE":"LARGE","NORAD_CAT_ID":"50851","MEAN_ELEMENT_THEORY":"SGP4","REF_FRAME":"TEME"},{"NORAD_CAT_ID":"51104","MEAN_ELEMENT_THEORY":"SGP4","REF_FRAME":"TEME","MEAN_MOTION_DOT":"0.00003053","CENTER_NAME":"EARTH","BSTAR":"0.00020989000000","MEAN_MOTION_DDOT":"0.0000000000000","RCS_SIZE":"LARGE","FILE":"3530813","LAUNCH_DATE":"2022-01-19","ELEMENT_SET_NO":"999","PERIOD":"95.438","PERIAPSIS":"538.596","ECCENTRICITY":"0.00017000","REV_AT_EPOCH":"3098","OBJECT_ID":"2022-005A","EPOCH":"2022-08-06T20:21:50.262624","ARG_OF_PERICENTER":"77.9040","EPHEMERIS_TYPE":"0","SITE":"AFETR","COUNTRY_CODE":"US","MEAN_MOTION":"15.08831313","TLE_LINE2":"2 51104  53.2185  53.7054 0001700  77.9040 282.2143 15.08831313 30981","TIME_SYSTEM":"UTC","OBJECT_TYPE":"PAYLOAD","RA_OF_ASC_NODE":"53.7054","OBJECT_NAME":"STARLINK-3366","MEAN_ANOMALY":"282.2143","SEMIMAJOR_AXIS":"6917.907","CLASSIFICATION_TYPE":"U","TLE_LINE1":"1 51104U 22005A   22218.84849841  .00003053  00000-0  20989-3 0  9993","DECAY_DATE":null,"INCLINATION":"53.2185","APOAPSIS":"540.948","GP_ID":"209726594"}];
